CUTE-1 (CO-55)          
1 27844U 03031E   24189.96951013  .00000522  00000+0  24953-3 0  9994
2 27844  98.6764 196.7086 0011051  85.3516 274.8924 14.23304231 90772
CUBESAT XI-IV (CO-57)   
1 27848U 03031J   24189.98218694  .00000440  00000+0  21555-3 0  9995
2 27848  98.6795 196.9542 0010918  99.5118 260.7295 14.22739886 90542
CUBESAT XI-V            
1 28895U 05043F   24190.16881198  .00002075  00000+0  37165-3 0  9990
2 28895  98.2047 326.0289 0014390 292.4684  67.4997 14.67843645997764
CUTE-1.7+APD II (CO-65) 
1 32785U 08021C   24189.87270069  .00004719  00000+0  41449-3 0  9994
2 32785  97.7565 155.0316 0008923 254.6670 105.3566 14.97034588878647
AAUSAT-II               
1 32788U 08021F   24189.87384274  .00020873  00000+0  10127-2 0  9998
2 32788  97.5944 170.1882 0008268 101.7695 258.4467 15.18489857881568
SEEDS II (CO-66)        
1 32791U 08021J   24189.89030370  .00008333  00000+0  60205-3 0  9999
2 32791  97.6898 160.9511 0003916 217.8981 142.1970 15.04317556879712
SWISSCUBE               
1 35932U 09051B   24189.66717804  .00001462  00000+0  32053-3 0  9998
2 35932  98.4690  73.3873 0005892 253.5162 106.5390 14.59172725785589
BEESAT-1                
1 35933U 09051C   24189.67582824  .00001271  00000+0  28169-3 0  9993
2 35933  98.4618  74.2786 0004211 269.3641  90.7075 14.58892918785692
ITUPSAT1                
1 35935U 09051E   24190.18560811  .00001124  00000+0  25597-3 0  9994
2 35935  98.4715  74.5714 0006498 275.1331  84.9125 14.57843650785358
TISAT 1                 
1 36799U 10035E   24189.18706308  .00007935  00000+0  59515-3 0  9991
2 36799  98.0864  79.4941 0005002 150.7580 209.3924 15.02936368760069
AEROCUBE 4.5A           
1 38767U 12048K   24189.50108364  .00010160  00000+0  54019-3 0  9996
2 38767  64.6589 248.8537 0109466  10.9456 349.4008 15.10641801263533
AEROCUBE 4.5B           
1 38768U 12048L   24190.21378825  .00035004  00000+0  11937-2 0  9993
2 38768  64.6534 170.2902 0088881 358.3076   1.7737 15.26419864264630
STRAND-1                
1 39090U 13009E   24189.48224140  .00000468  00000+0  17511-3 0  9998
2 39090  98.3811  17.2095 0008707 184.2994 175.8119 14.36112729595159
BRITE-AUSTRIA           
1 39091U 13009F   24190.01963808  .00000328  00000+0  12783-3 0  9992
2 39091  98.3855  17.0043 0010060 191.1362 168.9603 14.35833985595266
NEE-01 PEGASO           
1 39151U 13018B   24190.02100939  .00003380  00000+0  39277-3 0  9996
2 39151  98.0390 307.3400 0014108 336.1967  23.8594 14.85975923605078
ESTCUBE 1               
1 39161U 13021C   24190.07874322  .00002498  00000+0  36503-3 0  9998
2 39161  97.8276 255.9076 0009718 155.0446 205.1236 14.76543581600217
POPACS 1                
1 39268U 13055D   24189.27594506  .00050172  00000+0  85303-3 0  9990
2 39268  80.9821 128.1893 0402319  28.4578 333.7970 14.94054233563532
POPACS 2                
1 39269U 13055E   24189.38800178  .00009252  00000+0  21446-3 0  9999
2 39269  81.0000 217.4218 0546667 261.1971  92.6977 14.57663877558547
POPACS 3                
1 39270U 13055F   24189.65823948  .00009472  00000+0  25634-3 0  9998
2 39270  81.0084 268.5116 0625271  44.4215 320.5396 14.37785488556601
ZACUBE-1 (TSHEPISOSAT)  
1 39417U 13066B   24189.40951527  .00004858  00000+0  50316-3 0  9999
2 39417  97.7347 144.9275 0052315  93.6529 267.0673 14.89473270574591
WNISAT-1                
1 39423U 13066H   24189.50819029  .00000754  00000+0  15317-3 0  9990
2 39423  97.6701  22.1858 0168617 305.7946  52.7679 14.55337413563604
TRITON-1                
1 39427U 13066M   24190.15869575  .00004617  00000+0  64797-3 0  9996
2 39427  97.8413 107.4709 0102922  15.6804 344.7553 14.74298871569492
DELFI-N3XT              
1 39428U 13066N   24189.77703748  .00009075  00000+0  11455-2 0  9997
2 39428  97.8380 107.5691 0101203  23.0280 337.5421 14.78535081569315
GOMX-1                  
1 39430U 13066Q   24190.16544546  .00002088  00000+0  35164-3 0  9995
2 39430  97.7297  63.2799 0139531 185.5443 174.4224 14.64297333566115
CUBEBUG-2 (LO-74)       
1 39440U 13066AA  24189.41184649  .00002925  00000+0  34711-3 0  9993
2 39440  97.8136 132.6491 0068720 206.7335 153.0331 14.83579798571337
NEE-02 KRYSAOR          
1 39441U 13066AB  24189.31388656  .00002163  00000+0  27851-3 0  9998
2 39441  97.8228 128.3498 0072760 229.6939 129.7901 14.80295711570915
FUNCUBE-1 (AO-73)       
1 39444U 13066AE  24189.86564491  .00006660  00000+0  63990-3 0  9994
2 39444  97.7202 148.5502 0049642  73.1861 287.4795 14.92432239573780
UWE-3                   
1 39446U 13066AG  24189.85319641  .00003802  00000+0  42360-3 0  9993
2 39446  97.7818 139.1544 0061106 150.1564 210.3160 14.86301828572368
BRITE-CA1 (TORONTO)     
1 40020U 14033L   24190.12927018  .00001259  00000+0  20945-3 0  9992
2 40020  97.8803 326.5178 0083498  26.1996 334.3398 14.69528199538058
DUCHIFAT-1              
1 40021U 14033M   24190.20098032  .00012052  00000+0  78816-3 0  9990
2 40021  98.0900 175.1206 0013650  39.4753 320.7465 15.07873617547292
